start=new Date('2023-03-17T00:00:00.000Z').valueOf();
sats=[{"OBJECT_NAME":"STARLINK-2536","APOAPSIS":"547.865","TLE_LINE1":"1 48310U 21036AL  23075.87431289 -.00009067  00000-0 -59081-3 0  9997","CLASSIFICATION_TYPE":"U","TIME_SYSTEM":"UTC","TLE_LINE2":"2 48310  53.0536 299.4956 0000879  79.7506 280.3582 15.06386182104061","OBJECT_ID":"2021-036AL","REV_AT_EPOCH":"10406","BSTAR":"-0.00059081000000","SEMIMAJOR_AXIS":"6925.391","PERIAPSIS":"546.647","ECCENTRICITY":"0.00008790","REF_FRAME":"TEME","ARG_OF_PERICENTER":"79.7506","EPHEMERIS_TYPE":"0","MEAN_MOTION":"15.06386182","GP_ID":"228281157","NORAD_CAT_ID":"48310","RCS_SIZE":"LARGE","PERIOD":"95.593","EPOCH":"2023-03-16T20:59:00.633696","FILE":"3862592","CENTER_NAME":"EARTH","MEAN_MOTION_DDOT":"0.0000000000000","DECAY_DATE":null,"MEAN_ANOMALY":"280.3582","MEAN_ELEMENT_THEORY":"SGP4","ELEMENT_SET_NO":"999","LAUNCH_DATE":"2021-04-29","RA_OF_ASC_NODE":"299.4956","OBJECT_TYPE":"PAYLOAD","MEAN_MOTION_DOT":"-0.00009067","COUNTRY_CODE":"US","SITE":"AFETR","INCLINATION":"53.0536"},{"REV_AT_EPOCH":"10470","BSTAR":"0.00072420000000","PERIAPSIS":"546.765","SEMIMAJOR_AXIS":"6925.337","APOAPSIS":"547.639","OBJECT_NAME":"STARLINK-2534","TLE_LINE1":"1 48311U 21036AM  23075.87066343  .00010523  00000-0  72420-3 0  9992","TIME_SYSTEM":"UTC","CLASSIFICATION_TYPE":"U","OBJECT_ID":"2021-036AM","TLE_LINE2":"2 48311  53.0521 299.5197 0000631  74.6707 285.4351 15.06403655104703","ELEMENT_SET_NO":"999","DECAY_DATE":null,"MEAN_ELEMENT_THEORY":"SGP4","MEAN_ANOMALY":"285.4351","MEAN_MOTION_DDOT":"0.0000000000000","CENTER_NAME":"EARTH","OBJECT_TYPE":"PAYLOAD","RA_OF_ASC_NODE":"299.5197","LAUNCH_DATE":"2021-04-29","MEAN_MOTION_DOT":"0.00010523","COUNTRY_CODE":"US","INCLINATION":"53.0521","SITE":"AFETR","MEAN_MOTION":"15.06403655","EPHEMERIS_TYPE":"0","ARG_OF_PERICENTER":"74.6707","REF_FRAME":"TEME","ECCENTRICITY":"0.00006310","PERIOD":"95.592","EPOCH":"2023-03-16T20:53:45.320352","NORAD_CAT_ID":"48311","RCS_SIZE":"LARGE","GP_ID":"228254817","FILE":"3862372"},{"INCLINATION":"53.0546","SITE":"AFETR","MEAN_MOTION_DOT":"0.00011426","COUNTRY_CODE":"US","OBJECT_TYPE":"PAYLOAD","LAUNCH_DATE":"2021-04-29","RA_OF_ASC_NODE":"299.5332","MEAN_ANOMALY":"281.7294","DECAY_DATE":null,"MEAN_ELEMENT_THEORY":"SGP4","ELEMENT_SET_NO":"999","MEAN_MOTION_DDOT":"0.0000000000000","CENTER_NAME":"EARTH","FILE":"3862382","EPOCH":"2023-03-16T20:48:27.042624","PERIOD":"95.590","RCS_SIZE":"LARGE","NORAD_CAT_ID":"48312","GP_ID":"228255221","MEAN_MOTION":"15.06436095","EPHEMERIS_TYPE":"0","REF_FRAME":"TEME","ECCENTRICITY":"0.00010040","ARG_OF_PERICENTER":"78.3807","PERIAPSIS":"546.408","SEMIMAJOR_AXIS":"6925.238","BSTAR":"0.00078396000000","REV_AT_EPOCH":"10470","OBJECT_ID":"2021-036AN","TLE_LINE2":"2 48312  53.0546 299.5332 0001004  78.3807 281.7294 15.06436095104708","CLASSIFICATION_TYPE":"U","TIME_SYSTEM":"UTC","TLE_LINE1":"1 48312U 21036AN  23075.86697966  .00011426  00000-0  78396-3 0  9994","APOAPSIS":"547.798","OBJECT_NAME":"STARLINK-2061"},{"TLE_LINE1":"1 48313U 21036AP  23075.86330261  .00008180  00000-0  56711-3 0  9997","APOAPSIS":"547.949","OBJECT_NAME":"STARLINK-2541","TLE_LINE2":"2 48313  53.0539 299.5488 0001143 100.8145 259.2972 15.06418392104706","OBJECT_ID":"2021-036AP","TIME_SYSTEM":"UTC","CLASSIFICATION_TYPE":"U","BSTAR":"0.00056711000000","REV_AT_EPOCH":"10470","SEMIMAJOR_AXIS":"6925.292","PERIAPSIS":"546.366","EPHEMERIS_TYPE":"0","ECCENTRICITY":"0.00011430","REF_FRAME":"TEME","ARG_OF_PERICENTER":"100.8145","MEAN_MOTION":"15.06418392","FILE":"3862373","RCS_SIZE":"LARGE","NORAD_CAT_ID":"48313","GP_ID":"228255139","PERIOD":"95.591","EPOCH":"2023-03-16T20:43:09.345504","LAUNCH_DATE":"2021-04-29","RA_OF_ASC_NODE":"299.5488","OBJECT_TYPE":"PAYLOAD","MEAN_MOTION_DDOT":"0.0000000000000","CENTER_NAME":"EARTH","ELEMENT_SET_NO":"999","DECAY_DATE":null,"MEAN_ANOMALY":"259.2972","MEAN_ELEMENT_THEORY":"SGP4","SITE":"AFETR","INCLINATION":"53.0539","MEAN_MOTION_DOT":"0.00008180","COUNTRY_CODE":"US"},{"SITE":"AFETR","INCLINATION":"53.0525","COUNTRY_CODE":"US","MEAN_MOTION_DOT":"0.00021135","LAUNCH_DATE":"2021-04-29","RA_OF_ASC_NODE":"299.2729","OBJECT_TYPE":"PAYLOAD","MEAN_MOTION_DDOT":"0.0000000000000","CENTER_NAME":"EARTH","DECAY_DATE":null,"ELEMENT_SET_NO":"999","MEAN_ELEMENT_THEORY":"SGP4","MEAN_ANOMALY":"268.9473","FILE":"3862534","NORAD_CAT_ID":"48314","RCS_SIZE":"LARGE","GP_ID":"228259400","EPOCH":"2023-03-16T22:13:22.080000","PERIOD":"95.589","EPHEMERIS_TYPE":"0","ARG_OF_PERICENTER":"91.1620","ECCENTRICITY":"0.00009130","REF_FRAME":"TEME","MEAN_MOTION":"15.06447150","SEMIMAJOR_AXIS":"6925.204","PERIAPSIS":"546.437","BSTAR":"0.00143170000000","REV_AT_EPOCH":"10471","TLE_LINE2":"2 48314  53.0525 299.2729 0000913  91.1620 268.9473 15.06447150104719","OBJECT_ID":"2021-036AQ","CLASSIFICATION_TYPE":"U","TIME_SYSTEM":"UTC","TLE_LINE1":"1 48314U 21036AQ  23075.92595000  .00021135  00000-0  14317-2 0  9999","APOAPSIS":"547.701","OBJECT_NAME":"STARLINK-2549"},{"REV_AT_EPOCH":"10406","BSTAR":"0.00127600000000","SEMIMAJOR_AXIS":"6925.217","PERIAPSIS":"546.410","OBJECT_NAME":"STARLINK-2506","APOAPSIS":"547.753","TLE_LINE1":"1 48315U 21036AR  23075.92131999  .00018798  00000-0  12760-2 0  9994","TIME_SYSTEM":"UTC","CLASSIFICATION_TYPE":"U","TLE_LINE2":"2 48315  53.0536 299.2805 0000970  84.0252 276.0848 15.06443065104067","OBJECT_ID":"2021-036AR","CENTER_NAME":"EARTH","MEAN_MOTION_DDOT":"0.0000000000000","DECAY_DATE":null,"MEAN_ANOMALY":"276.0848","ELEMENT_SET_NO":"999","MEAN_ELEMENT_THEORY":"SGP4","LAUNCH_DATE":"2021-04-29","RA_OF_ASC_NODE":"299.2805","OBJECT_TYPE":"PAYLOAD","MEAN_MOTION_DOT":"0.00018798","COUNTRY_CODE":"US","SITE":"AFETR","INCLINATION":"53.0536","REF_FRAME":"TEME","ECCENTRICITY":"0.00009700","ARG_OF_PERICENTER":"84.0252","EPHEMERIS_TYPE":"0","MEAN_MOTION":"15.06443065","GP_ID":"228281909","RCS_SIZE":"LARGE","NORAD_CAT_ID":"48315","PERIOD":"95.589","EPOCH":"2023-03-16T22:06:42.047136","FILE":"3862592"},{"CLASSIFICATION_TYPE":"U","TIME_SYSTEM":"UTC","OBJECT_ID":"2021-036AS","TLE_LINE2":"2 48316  53.0541 299.3047 0000973  81.0343 279.0756 15.06436600104062","APOAPSIS":"547.775","OBJECT_NAME":"STARLINK-2507","TLE_LINE1":"1 48316U 21036AS  23075.91857993  .00017263  00000-0  11738-2 0  9993","PERIAPSIS":"546.428","SEMIMAJOR_AXIS":"6925.236","REV_AT_EPOCH":"10406","BSTAR":"0.00117380000000","PERIOD":"95.590","EPOCH":"2023-03-16T22:02:45.305952","RCS_SIZE":"LARGE","NORAD_CAT_ID":"48316","GP_ID":"228282659","FILE":"3862592","MEAN_MOTION":"15.06436600","EPHEMERIS_TYPE":"0","ECCENTRICITY":"0.00009730","ARG_OF_PERICENTER":"81.0343","REF_FRAME":"TEME","COUNTRY_CODE":"US","MEAN_MOTION_DOT":"0.00017263","INCLINATION":"53.0541","SITE":"AFETR","DECAY_DATE":null,"ELEMENT_SET_NO":"999","MEAN_ANOMALY":"279.0756","MEAN_ELEMENT_THEORY":"SGP4","MEAN_MOTION_DDOT":"0.0000000000000","CENTER_NAME":"EARTH","OBJECT_TYPE":"PAYLOAD","LAUNCH_DATE":"2021-04-29","RA_OF_ASC_NODE":"299.3047"},{"PERIAPSIS":"546.428","SEMIMAJOR_AXIS":"6925.191","BSTAR":"0.00126430000000","REV_AT_EPOCH":"10406","OBJECT_ID":"2021-036AT","TLE_LINE2":"2 48317  53.0551 299.3200 0000907  86.0679 274.0414 15.06451257104060","CLASSIFICATION_TYPE":"U","TIME_SYSTEM":"UTC","TLE_LINE1":"1 48317U 21036AT  23075.91490369  .00018626  00000-0  12643-2 0  9994","APOAPSIS":"547.685","OBJECT_NAME":"STARLINK-2513","INCLINATION":"53.0551","SITE":"AFETR","MEAN_MOTION_DOT":"0.00018626","COUNTRY_CODE":"US","OBJECT_TYPE":"PAYLOAD","RA_OF_ASC_NODE":"299.3200","LAUNCH_DATE":"2021-04-29","DECAY_DATE":null,"MEAN_ANOMALY":"274.0414","ELEMENT_SET_NO":"999","MEAN_ELEMENT_THEORY":"SGP4","MEAN_MOTION_DDOT":"0.0000000000000","CENTER_NAME":"EARTH","FILE":"3862592","PERIOD":"95.589","EPOCH":"2023-03-16T21:57:27.678816","RCS_SIZE":"LARGE","NORAD_CAT_ID":"48317","GP_ID":"228280908","MEAN_MOTION":"15.06451257","EPHEMERIS_TYPE":"0","ECCENTRICITY":"0.00009070","REF_FRAME":"TEME","ARG_OF_PERICENTER":"86.0679"},{"TLE_LINE2":"2 48318  53.0533 309.9544 0000802 133.0102 227.0954 15.06443657103902","OBJECT_ID":"2021-036AU","TIME_SYSTEM":"UTC","CLASSIFICATION_TYPE":"U","TLE_LINE1":"1 48318U 21036AU  23075.77391228  .00024350  00000-0  16460-2 0  9995","APOAPSIS":"547.635","OBJECT_NAME":"STARLINK-2509","SEMIMAJOR_AXIS":"6925.215","PERIAPSIS":"546.524","BSTAR":"0.00164600000000","REV_AT_EPOCH":"10390","FILE":"3862592","NORAD_CAT_ID":"48318","RCS_SIZE":"LARGE","GP_ID":"228281158","EPOCH":"2023-03-16T18:34:26.020992","PERIOD":"95.589","EPHEMERIS_TYPE":"0","ARG_OF_PERICENTER":"133.0102","ECCENTRICITY":"0.00008020","REF_FRAME":"TEME","MEAN_MOTION":"15.06443657","SITE":"AFETR","INCLINATION":"53.0533","COUNTRY_CODE":"US","MEAN_MOTION_DOT":"0.00024350","LAUNCH_DATE":"2021-04-29","RA_OF_ASC_NODE":"309.9544","OBJECT_TYPE":"PAYLOAD","MEAN_MOTION_DDOT":"0.0000000000000","CENTER_NAME":"EARTH","MEAN_ELEMENT_THEORY":"SGP4","DECAY_DATE":null,"MEAN_ANOMALY":"227.0954","ELEMENT_SET_NO":"999"},{"CLASSIFICATION_TYPE":"U","TIME_SYSTEM":"UTC","OBJECT_ID":"2021-036AV","TLE_LINE2":"2 48319  53.0510 309.3731 0000885 118.1920 241.9159 15.06454667103920","APOAPSIS":"547.659","OBJECT_NAME":"STARLINK-2512","TLE_LINE1":"1 48319U 21036AV  23075.90198370  .00022475  00000-0  15207-2 0  9998","PERIAPSIS":"546.433","SEMIMAJOR_AXIS":"6925.181","REV_AT_EPOCH":"10392","BSTAR":"0.00152070000000","PERIOD":"95.589","EPOCH":"2023-03-16T21:38:51.391680","RCS_SIZE":"LARGE","NORAD_CAT_ID":"48319","GP_ID":"228282409","FILE":"3862592","MEAN_MOTION":"15.06454667","EPHEMERIS_TYPE":"0","REF_FRAME":"TEME","ARG_OF_PERICENTER":"118.1920","ECCENTRICITY":"0.00008850","MEAN_MOTION_DOT":"0.00022475","COUNTRY_CODE":"US","INCLINATION":"53.0510","SITE":"AFETR","MEAN_ELEMENT_THEORY":"SGP4","DECAY_DATE":null,"MEAN_ANOMALY":"241.9159","ELEMENT_SET_NO":"999","MEAN_MOTION_DDOT":"0.0000000000000","CENTER_NAME":"EARTH","OBJECT_TYPE":"PAYLOAD","RA_OF_ASC_NODE":"309.3731","LAUNCH_DATE":"2021-04-29"}];
